ONEWEB-0195             
1 48240U 21031AG  23270.34107383 -.00000120  00000+0 -35695-3 0  9993
2 48240  87.8983 127.5297 0001644  65.6332 294.4970 13.14502878117582
ONEWEB-0201             
1 48241U 21031AH  23269.65178587 -.00000028  00000+0 -11093-3 0  9993
2 48241  87.8975 127.7054 0001635  76.9250 283.2062 13.14502711117721
ONEWEB-0207             
1 48242U 21031AJ  23269.62639543 -.00000133  00000+0 -39343-3 0  9990
2 48242  87.8976 127.6779 0001456  82.8873 277.2422 13.14504487117639
ONEWEB-0208             
1 48243U 21031AK  23270.36538685  .00000411  00000+0  10744-2 0  9999
2 48243  87.8971 127.5477 0001687  70.0714 290.0598 13.14503414117746
ONEWEB-0200             
1 48244U 21031AL  23269.64435453 -.00000154  00000+0 -44891-3 0  9995
2 48244  87.8985 127.6798 0001653  68.5414 291.5892 13.14500742117576
ONEWEB-0217             
1 48245U 21031AM  23270.34633788  .00000025  00000+0  33354-4 0  9994
2 48245  87.8983 127.5251 0001766  65.7153 294.4161 13.14506005117627
ONEWEB-0211             
1 48767U 21045A   23270.02652955  .00000016  00000+0  84825-5 0  9990
2 48767  87.8934  97.1282 0001741  83.5788 276.5541 13.15551035114830
ONEWEB-0223             
1 48768U 21045B   23269.59131251  .00000175  00000+0  43003-3 0  9999
2 48768  87.8932  97.2194 0002004  73.2523 286.8827 13.15546178114774
